start=new Date('2022-11-14T00:00:00.000Z').valueOf();
sats=[{"MEAN_MOTION":"15.06390934","SITE":"AFETR","OBJECT_ID":"2020-073V","CLASSIFICATION_TYPE":"U","NORAD_CAT_ID":"46689","TIME_SYSTEM":"UTC","MEAN_ELEMENT_THEORY":"SGP4","BSTAR":"-0.00013398000000","TLE_LINE2":"2 46689  53.0544 297.6356 0001828  46.9049 313.2092 15.06390934115484","DECAY_DATE":null,"PERIOD":"95.593","MEAN_MOTION_DOT":"-0.00002276","PERIAPSIS":"545.975","MEAN_MOTION_DDOT":"0.0000000000000","INCLINATION":"53.0544","ECCENTRICITY":"0.00018280","SEMIMAJOR_AXIS":"6925.376","LAUNCH_DATE":"2020-10-18","EPHEMERIS_TYPE":"0","ELEMENT_SET_NO":"999","APOAPSIS":"548.507","CENTER_NAME":"EARTH","ARG_OF_PERICENTER":"46.9049","GP_ID":"217689338","RA_OF_ASC_NODE":"297.6356","TLE_LINE1":"1 46689U 20073V   22317.65845027 -.00002276  00000-0 -13398-3 0  9993","REV_AT_EPOCH":"11548","MEAN_ANOMALY":"313.2092","OBJECT_TYPE":"PAYLOAD","RCS_SIZE":"LARGE","OBJECT_NAME":"STARLINK-1788","EPOCH":"2022-11-13T15:48:10.103328","COUNTRY_CODE":"US","FILE":"3653957","REF_FRAME":"TEME"},{"EPOCH":"2022-11-13T06:15:35.437248","OBJECT_NAME":"STARLINK-1789","RCS_SIZE":"LARGE","OBJECT_TYPE":"PAYLOAD","MEAN_ANOMALY":"297.8869","COUNTRY_CODE":"US","REF_FRAME":"TEME","FILE":"3653444","CENTER_NAME":"EARTH","APOAPSIS":"548.463","ELEMENT_SET_NO":"999","TLE_LINE1":"1 46690U 20073W   22317.26082682 -.00000639  00000-0 -23977-4 0  9998","GP_ID":"217659112","RA_OF_ASC_NODE":"274.4385","REV_AT_EPOCH":"11500","ARG_OF_PERICENTER":"62.2305","MEAN_MOTION_DOT":"-0.00000639","MEAN_MOTION_DDOT":"0.0000000000000","PERIAPSIS":"545.944","PERIOD":"95.592","EPHEMERIS_TYPE":"0","ECCENTRICITY":"0.00018190","INCLINATION":"53.0551","LAUNCH_DATE":"2020-10-18","SEMIMAJOR_AXIS":"6925.338","CLASSIFICATION_TYPE":"U","SITE":"AFETR","MEAN_MOTION":"15.06403328","OBJECT_ID":"2020-073W","DECAY_DATE":null,"MEAN_ELEMENT_THEORY":"SGP4","TIME_SYSTEM":"UTC","NORAD_CAT_ID":"46690","TLE_LINE2":"2 46690  53.0551 274.4385 0001819  62.2305 297.8869 15.06403328115004","BSTAR":"-0.00002397700000"},{"ECCENTRICITY":"0.00019810","INCLINATION":"53.0544","SEMIMAJOR_AXIS":"6925.351","LAUNCH_DATE":"2020-10-18","EPHEMERIS_TYPE":"0","PERIOD":"95.592","MEAN_MOTION_DOT":"-0.00002050","MEAN_MOTION_DDOT":"0.0000000000000","PERIAPSIS":"545.844","MEAN_ELEMENT_THEORY":"SGP4","TIME_SYSTEM":"UTC","NORAD_CAT_ID":"46691","TLE_LINE2":"2 46691  53.0544 283.8330 0001981  44.0097 316.1050 15.06399363114400","BSTAR":"-0.00011873000000","DECAY_DATE":null,"SITE":"AFETR","MEAN_MOTION":"15.06399363","OBJECT_ID":"2020-073X","CLASSIFICATION_TYPE":"U","COUNTRY_CODE":"US","REF_FRAME":"TEME","FILE":"3653238","RCS_SIZE":"LARGE","MEAN_ANOMALY":"316.1050","OBJECT_TYPE":"PAYLOAD","EPOCH":"2022-11-13T09:25:20.404128","OBJECT_NAME":"STARLINK-1790","ARG_OF_PERICENTER":"44.0097","TLE_LINE1":"1 46691U 20073X   22317.39259727 -.00002050  00000-0 -11873-3 0  9999","GP_ID":"217623517","RA_OF_ASC_NODE":"283.8330","REV_AT_EPOCH":"11440","ELEMENT_SET_NO":"999","CENTER_NAME":"EARTH","APOAPSIS":"548.587"},{"MEAN_MOTION_DOT":"0.00000182","PERIAPSIS":"546.148","MEAN_MOTION_DDOT":"0.0000000000000","PERIOD":"95.593","EPHEMERIS_TYPE":"0","INCLINATION":"53.0561","ECCENTRICITY":"0.00015960","LAUNCH_DATE":"2020-10-18","SEMIMAJOR_AXIS":"6925.389","CLASSIFICATION_TYPE":"U","MEAN_MOTION":"15.06386897","SITE":"AFETR","OBJECT_ID":"2020-073Y","DECAY_DATE":null,"NORAD_CAT_ID":"46692","TIME_SYSTEM":"UTC","MEAN_ELEMENT_THEORY":"SGP4","BSTAR":"0.00003110300000","TLE_LINE2":"2 46692  53.0561 297.7008 0001596  58.8564 301.2581 15.06386897114233","OBJECT_NAME":"STARLINK-1791","EPOCH":"2022-11-13T15:26:56.424768","OBJECT_TYPE":"PAYLOAD","MEAN_ANOMALY":"301.2581","RCS_SIZE":"LARGE","COUNTRY_CODE":"US","FILE":"3653957","REF_FRAME":"TEME","APOAPSIS":"548.359","CENTER_NAME":"EARTH","ELEMENT_SET_NO":"999","GP_ID":"217690091","RA_OF_ASC_NODE":"297.7008","TLE_LINE1":"1 46692U 20073Y   22317.64370862  .00000182  00000-0  31103-4 0  9993","REV_AT_EPOCH":"11423","ARG_OF_PERICENTER":"58.8564"},{"TLE_LINE2":"2 46693  53.0529 284.1301 0001935  46.4864 313.6286 15.06402197114395","BSTAR":"0.00002624200000","MEAN_ELEMENT_THEORY":"SGP4","TIME_SYSTEM":"UTC","NORAD_CAT_ID":"46693","DECAY_DATE":null,"OBJECT_ID":"2020-073Z","SITE":"AFETR","MEAN_MOTION":"15.06402197","CLASSIFICATION_TYPE":"U","SEMIMAJOR_AXIS":"6925.342","LAUNCH_DATE":"2020-10-18","ECCENTRICITY":"0.00019350","INCLINATION":"53.0529","EPHEMERIS_TYPE":"0","PERIOD":"95.592","MEAN_MOTION_DDOT":"0.0000000000000","PERIAPSIS":"545.867","MEAN_MOTION_DOT":"0.00000109","ARG_OF_PERICENTER":"46.4864","REV_AT_EPOCH":"11439","TLE_LINE1":"1 46693U 20073Z   22317.32993397  .00000109  00000-0  26242-4 0  9990","GP_ID":"217623015","RA_OF_ASC_NODE":"284.1301","ELEMENT_SET_NO":"999","CENTER_NAME":"EARTH","APOAPSIS":"548.547","REF_FRAME":"TEME","FILE":"3653238","COUNTRY_CODE":"US","RCS_SIZE":"LARGE","OBJECT_TYPE":"PAYLOAD","MEAN_ANOMALY":"313.6286","EPOCH":"2022-11-13T07:55:06.295008","OBJECT_NAME":"STARLINK-1792"},{"RCS_SIZE":"LARGE","MEAN_ANOMALY":"295.5024","OBJECT_TYPE":"PAYLOAD","EPOCH":"2022-11-13T05:18:31.518432","OBJECT_NAME":"STARLINK-1793","REF_FRAME":"TEME","FILE":"3653238","COUNTRY_CODE":"US","ELEMENT_SET_NO":"999","CENTER_NAME":"EARTH","APOAPSIS":"548.404","ARG_OF_PERICENTER":"64.6141","REV_AT_EPOCH":"11466","TLE_LINE1":"1 46694U 20073AA  22317.22119813  .00001313  00000-0  10701-3 0  9993","GP_ID":"217622767","RA_OF_ASC_NODE":"264.6074","PERIOD":"95.592","MEAN_MOTION_DDOT":"0.0000000000000","PERIAPSIS":"546.042","MEAN_MOTION_DOT":"0.00001313","LAUNCH_DATE":"2020-10-18","SEMIMAJOR_AXIS":"6925.358","ECCENTRICITY":"0.00017050","INCLINATION":"53.0538","EPHEMERIS_TYPE":"0","OBJECT_ID":"2020-073AA","SITE":"AFETR","MEAN_MOTION":"15.06396893","CLASSIFICATION_TYPE":"U","TLE_LINE2":"2 46694  53.0538 264.6074 0001705  64.6141 295.5024 15.06396893114664","BSTAR":"0.00010701000000","MEAN_ELEMENT_THEORY":"SGP4","TIME_SYSTEM":"UTC","NORAD_CAT_ID":"46694","DECAY_DATE":null},{"CENTER_NAME":"EARTH","APOAPSIS":"548.428","ELEMENT_SET_NO":"999","TLE_LINE1":"1 46696U 20073AC  22317.57137770 -.00000199  00000-0  55770-5 0  9994","GP_ID":"217690339","RA_OF_ASC_NODE":"263.0376","REV_AT_EPOCH":"11471","ARG_OF_PERICENTER":"46.3718","EPOCH":"2022-11-13T13:42:47.033280","OBJECT_NAME":"STARLINK-1795","RCS_SIZE":"LARGE","MEAN_ANOMALY":"313.7414","OBJECT_TYPE":"PAYLOAD","COUNTRY_CODE":"US","REF_FRAME":"TEME","FILE":"3653957","CLASSIFICATION_TYPE":"U","SITE":"AFETR","MEAN_MOTION":"15.06392720","OBJECT_ID":"2020-073AC","DECAY_DATE":null,"MEAN_ELEMENT_THEORY":"SGP4","NORAD_CAT_ID":"46696","TIME_SYSTEM":"UTC","TLE_LINE2":"2 46696  53.0553 263.0376 0001722  46.3718 313.7414 15.06392720114714","BSTAR":"0.00000557700000","MEAN_MOTION_DOT":"-0.00000199","MEAN_MOTION_DDOT":"0.0000000000000","PERIAPSIS":"546.043","PERIOD":"95.593","EPHEMERIS_TYPE":"0","INCLINATION":"53.0553","ECCENTRICITY":"0.00017220","SEMIMAJOR_AXIS":"6925.371","LAUNCH_DATE":"2020-10-18"},{"EPOCH":"2022-11-13T15:03:41.123520","OBJECT_NAME":"STARLINK-1797","RCS_SIZE":"LARGE","OBJECT_TYPE":"PAYLOAD","MEAN_ANOMALY":"305.8505","REF_FRAME":"TEME","FILE":"3653957","COUNTRY_CODE":"US","CENTER_NAME":"EARTH","APOAPSIS":"548.552","ELEMENT_SET_NO":"999","REV_AT_EPOCH":"11444","TLE_LINE1":"1 46698U 20073AE  22317.62755930 -.00001850  00000-0 -10529-3 0  9993","RA_OF_ASC_NODE":"282.7690","GP_ID":"217690590","ARG_OF_PERICENTER":"54.2664","MEAN_MOTION_DDOT":"0.0000000000000","PERIAPSIS":"545.875","MEAN_MOTION_DOT":"-0.00001850","PERIOD":"95.592","EPHEMERIS_TYPE":"0","LAUNCH_DATE":"2020-10-18","SEMIMAJOR_AXIS":"6925.349","ECCENTRICITY":"0.00019330","INCLINATION":"53.0561","CLASSIFICATION_TYPE":"U","OBJECT_ID":"2020-073AE","SITE":"AFETR","MEAN_MOTION":"15.06399965","DECAY_DATE":null,"TLE_LINE2":"2 46698  53.0561 282.7690 0001933  54.2664 305.8505 15.06399965114445","BSTAR":"-0.00010529000000","MEAN_ELEMENT_THEORY":"SGP4","NORAD_CAT_ID":"46698","TIME_SYSTEM":"UTC"},{"TLE_LINE2":"2 46699  53.0543 282.7613 0001774  56.5408 303.5751 15.06402373114441","BSTAR":"-0.00009174300000","MEAN_ELEMENT_THEORY":"SGP4","NORAD_CAT_ID":"46699","TIME_SYSTEM":"UTC","DECAY_DATE":null,"OBJECT_ID":"2020-073AF","SITE":"AFETR","MEAN_MOTION":"15.06402373","CLASSIFICATION_TYPE":"U","LAUNCH_DATE":"2020-10-18","SEMIMAJOR_AXIS":"6925.341","ECCENTRICITY":"0.00017740","INCLINATION":"53.0543","EPHEMERIS_TYPE":"0","PERIOD":"95.592","MEAN_MOTION_DDOT":"0.0000000000000","PERIAPSIS":"545.978","MEAN_MOTION_DOT":"-0.00001648","ARG_OF_PERICENTER":"56.5408","REV_AT_EPOCH":"11444","TLE_LINE1":"1 46699U 20073AF  22317.63218587 -.00001648  00000-0 -91743-4 0  9990","GP_ID":"217689339","RA_OF_ASC_NODE":"282.7613","ELEMENT_SET_NO":"999","CENTER_NAME":"EARTH","APOAPSIS":"548.435","REF_FRAME":"TEME","FILE":"3653957","COUNTRY_CODE":"US","RCS_SIZE":"LARGE","MEAN_ANOMALY":"303.5751","OBJECT_TYPE":"PAYLOAD","EPOCH":"2022-11-13T15:10:20.859168","OBJECT_NAME":"STARLINK-1799"},{"RA_OF_ASC_NODE":"298.6446","GP_ID":"217623266","TLE_LINE1":"1 46700U 20073AG  22317.43729141 -.00000447  00000-0 -11108-4 0  9997","REV_AT_EPOCH":"11420","ARG_OF_PERICENTER":"46.8093","APOAPSIS":"548.525","CENTER_NAME":"EARTH","ELEMENT_SET_NO":"999","COUNTRY_CODE":"US","FILE":"3653238","REF_FRAME":"TEME","OBJECT_NAME":"STARLINK-1800","EPOCH":"2022-11-13T10:29:41.977824","MEAN_ANOMALY":"313.3054","OBJECT_TYPE":"PAYLOAD","RCS_SIZE":"LARGE","DECAY_DATE":null,"TIME_SYSTEM":"UTC","NORAD_CAT_ID":"46700","MEAN_ELEMENT_THEORY":"SGP4","BSTAR":"-0.00001110800000","TLE_LINE2":"2 46700  53.0532 298.6446 0001901  46.8093 313.3054 15.06401523114201","CLASSIFICATION_TYPE":"U","MEAN_MOTION":"15.06401523","SITE":"AFETR","OBJECT_ID":"2020-073AG","EPHEMERIS_TYPE":"0","ECCENTRICITY":"0.00019010","INCLINATION":"53.0532","LAUNCH_DATE":"2020-10-18","SEMIMAJOR_AXIS":"6925.344","MEAN_MOTION_DOT":"-0.00000447","PERIAPSIS":"545.892","MEAN_MOTION_DDOT":"0.0000000000000","PERIOD":"95.592"}];
